GAOFEN-5 01             
1 43461U 18043A   26064.61618804  .00000730  00000+0  16056-3 0  9996
2 43461  98.4460  34.0974 0002779  59.9487 300.1988 14.60518671416576
GAOFEN-6                
1 43484U 18048A   26064.73020322  .00000980  00000+0  14729-3 0  9993
2 43484  97.7880 131.1506 0012929 146.6711 213.5316 14.76587477418123
GAOFEN-11 01            
1 43585U 18063A   26064.74235962  .00019208  00000+0  31920-3 0  9996
2 43585  97.1421 132.0847 0004103  17.0043 343.1346 15.52108498424286
ICESAT-2                
1 43613U 18070A   26064.69827921  .00004354  00000+0  15798-3 0  9993
2 43613  91.9987 263.0949 0003333 129.9884 230.1659 15.28294718416653
HYSIS                   
1 43719U 18096A   26064.74368848  .00001891  00000+0  26520-3 0  9990
2 43719  97.9949 132.2532 0001735 101.9572 258.1834 14.78646764392134
KAZSTSAT                
1 43783U 18099AB  26064.68215096  .00001443  00000+0  12174-3 0  9996
2 43783  97.4407 101.2503 0007021  23.7090 336.4456 14.99610345395797
SAUDISAT 5A             
1 43831U 18102A   26064.79192991  .00008402  00000+0  32040-3 0  9991
2 43831  97.3194 128.3851 0011149 134.7230 225.4919 15.26871887399891
SAUDISAT 5B             
1 43833U 18102C   26064.76450230  .00007695  00000+0  29092-3 0  9999
2 43833  97.3292 131.2434 0011831 137.3069 222.9091 15.27183418400005
GAOFEN-10R              
1 44622U 19066A   26064.78554626  .00002375  00000+0  29779-3 0  9994
2 44622  98.0396  17.6893 0008054 116.7504 243.4534 14.83137574347057
CARTOSAT-3              
1 44804U 19081A   26064.81673595  .00004987  00000+0  24016-3 0  9994
2 44804  97.4424 128.2816 0012831 149.7341 210.4637 15.19137114347778
GAOFEN-12 01            
1 44819U 19082A   26064.73464975  .00000738  00000+0  10335-3 0  9991
2 44819  97.8142  73.8369 0001958  61.3212 298.8197 14.80359807338781
CSG-1                   
1 44873U 19092A   26064.76020513  .00000914  00000+0  12138-3 0  9990
2 44873  97.8863 249.8549 0001309  87.2106 272.9257 14.82167513336157
NEMO-HD                 
1 46277U 20061F   26064.72744081  .00012834  00000+0  29897-3 0  9991
2 46277  97.2049 127.8209 0002533  83.0313 277.1223 15.42394247306025
SENTINEL-6A             
1 46984U 20086A   26064.24452167 -.00000050  00000+0  48802-4 0  9997
2 46984  66.0446 350.9437 0007815 270.8309  89.1811 12.80929583247019
GAOFEN-12 02            
1 48079U 21026A   26064.80231020  .00000747  00000+0  10525-3 0  9996
2 48079  97.9914  63.4218 0004272 193.0131 167.0971 14.80198008266460
PLEIADES NEO 3          
1 48268U 21034A   26064.72587587 -.00000028  00000+0  31064-5 0  9994
2 48268  97.8935 140.9775 0001332  89.7214 270.4151 14.81673866262330
PLEIADES NEO 4          
1 49070U 21073E   26064.75963222 -.00000061  00000+0 -11936-5 0  9990
2 49070  97.8934 141.0065 0001318  90.7905 269.3459 14.81672417246058
