[{"OBJECT_NAME":"GAOFEN-5 01","OBJECT_ID":"2018-043A","EPOCH":"2026-03-05T14:47:18.646656","MEAN_MOTION":14.60518671,"ECCENTRICITY":0.0002779,"INCLINATION":98.446,"RA_OF_ASC_NODE":34.0974,"ARG_OF_PERICENTER":59.9487,"MEAN_ANOMALY":300.1988,"EPHEMERIS_TYPE":0,"CLASSIFICATION_TYPE":"U","NORAD_CAT_ID":43461,"ELEMENT_SET_NO":999,"REV_AT_EPOCH":41657,"BSTAR":0.00016056,"MEAN_MOTION_DOT":7.3e-6,"MEAN_MOTION_DDOT":0},{"OBJECT_NAME":"GAOFEN-6","OBJECT_ID":"2018-048A","EPOCH":"2026-03-05T17:31:29.558208","MEAN_MOTION":14.76587477,"ECCENTRICITY":0.0012929,"INCLINATION":97.788,"RA_OF_ASC_NODE":131.1506,"ARG_OF_PERICENTER":146.6711,"MEAN_ANOMALY":213.5316,"EPHEMERIS_TYPE":0,"CLASSIFICATION_TYPE":"U","NORAD_CAT_ID":43484,"ELEMENT_SET_NO":999,"REV_AT_EPOCH":41812,"BSTAR":0.00014729,"MEAN_MOTION_DOT":9.8e-6,"MEAN_MOTION_DDOT":0},{"OBJECT_NAME":"GAOFEN-11 01","OBJECT_ID":"2018-063A","EPOCH":"2026-03-05T17:48:59.871168","MEAN_MOTION":15.52108498,"ECCENTRICITY":0.0004103,"INCLINATION":97.1421,"RA_OF_ASC_NODE":132.0847,"ARG_OF_PERICENTER":17.0043,"MEAN_ANOMALY":343.1346,"EPHEMERIS_TYPE":0,"CLASSIFICATION_TYPE":"U","NORAD_CAT_ID":43585,"ELEMENT_SET_NO":999,"REV_AT_EPOCH":42428,"BSTAR":0.0003192,"MEAN_MOTION_DOT":0.00019208,"MEAN_MOTION_DDOT":0},{"OBJECT_NAME":"ICESAT-2","OBJECT_ID":"2018-070A","EPOCH":"2026-03-05T16:45:31.323744","MEAN_MOTION":15.28294718,"ECCENTRICITY":0.0003333,"INCLINATION":91.9987,"RA_OF_ASC_NODE":263.0949,"ARG_OF_PERICENTER":129.9884,"MEAN_ANOMALY":230.1659,"EPHEMERIS_TYPE":0,"CLASSIFICATION_TYPE":"U","NORAD_CAT_ID":43613,"ELEMENT_SET_NO":999,"REV_AT_EPOCH":41665,"BSTAR":0.00015798,"MEAN_MOTION_DOT":4.354e-5,"MEAN_MOTION_DDOT":0},{"OBJECT_NAME":"HYSIS","OBJECT_ID":"2018-096A","EPOCH":"2026-03-05T17:50:54.684672","MEAN_MOTION":14.78646764,"ECCENTRICITY":0.0001735,"INCLINATION":97.9949,"RA_OF_ASC_NODE":132.2532,"ARG_OF_PERICENTER":101.9572,"MEAN_ANOMALY":258.1834,"EPHEMERIS_TYPE":0,"CLASSIFICATION_TYPE":"U","NORAD_CAT_ID":43719,"ELEMENT_SET_NO":999,"REV_AT_EPOCH":39213,"BSTAR":0.0002652,"MEAN_MOTION_DOT":1.891e-5,"MEAN_MOTION_DDOT":0},{"OBJECT_NAME":"KAZSTSAT","OBJECT_ID":"2018-099AB","EPOCH":"2026-03-05T16:22:17.842944","MEAN_MOTION":14.99610345,"ECCENTRICITY":0.0007021,"INCLINATION":97.4407,"RA_OF_ASC_NODE":101.2503,"ARG_OF_PERICENTER":23.709,"MEAN_ANOMALY":336.4456,"EPHEMERIS_TYPE":0,"CLASSIFICATION_TYPE":"U","NORAD_CAT_ID":43783,"ELEMENT_SET_NO":999,"REV_AT_EPOCH":39579,"BSTAR":0.00012174,"MEAN_MOTION_DOT":1.443e-5,"MEAN_MOTION_DDOT":0},{"OBJECT_NAME":"SAUDISAT 5A","OBJECT_ID":"2018-102A","EPOCH":"2026-03-05T19:00:22.744224","MEAN_MOTION":15.26871887,"ECCENTRICITY":0.0011149,"INCLINATION":97.3194,"RA_OF_ASC_NODE":128.3851,"ARG_OF_PERICENTER":134.723,"MEAN_ANOMALY":225.4919,"EPHEMERIS_TYPE":0,"CLASSIFICATION_TYPE":"U","NORAD_CAT_ID":43831,"ELEMENT_SET_NO":999,"REV_AT_EPOCH":39989,"BSTAR":0.0003204,"MEAN_MOTION_DOT":8.402e-5,"MEAN_MOTION_DDOT":0},{"OBJECT_NAME":"SAUDISAT 5B","OBJECT_ID":"2018-102C","EPOCH":"2026-03-05T18:20:52.998720","MEAN_MOTION":15.27183418,"ECCENTRICITY":0.0011831,"INCLINATION":97.3292,"RA_OF_ASC_NODE":131.2434,"ARG_OF_PERICENTER":137.3069,"MEAN_ANOMALY":222.9091,"EPHEMERIS_TYPE":0,"CLASSIFICATION_TYPE":"U","NORAD_CAT_ID":43833,"ELEMENT_SET_NO":999,"REV_AT_EPOCH":40000,"BSTAR":0.00029092,"MEAN_MOTION_DOT":7.695e-5,"MEAN_MOTION_DDOT":0},{"OBJECT_NAME":"GAOFEN-10R","OBJECT_ID":"2019-066A","EPOCH":"2026-03-05T18:51:11.196864","MEAN_MOTION":14.83137574,"ECCENTRICITY":0.0008054,"INCLINATION":98.0396,"RA_OF_ASC_NODE":17.6893,"ARG_OF_PERICENTER":116.7504,"MEAN_ANOMALY":243.4534,"EPHEMERIS_TYPE":0,"CLASSIFICATION_TYPE":"U","NORAD_CAT_ID":44622,"ELEMENT_SET_NO":999,"REV_AT_EPOCH":34705,"BSTAR":0.00029779,"MEAN_MOTION_DOT":2.375e-5,"MEAN_MOTION_DDOT":0},{"OBJECT_NAME":"CARTOSAT-3","OBJECT_ID":"2019-081A","EPOCH":"2026-03-05T19:36:05.986080","MEAN_MOTION":15.19137114,"ECCENTRICITY":0.0012831,"INCLINATION":97.4424,"RA_OF_ASC_NODE":128.2816,"ARG_OF_PERICENTER":149.7341,"MEAN_ANOMALY":210.4637,"EPHEMERIS_TYPE":0,"CLASSIFICATION_TYPE":"U","NORAD_CAT_ID":44804,"ELEMENT_SET_NO":999,"REV_AT_EPOCH":34777,"BSTAR":0.00024016,"MEAN_MOTION_DOT":4.987e-5,"MEAN_MOTION_DDOT":0},{"OBJECT_NAME":"GAOFEN-12 01","OBJECT_ID":"2019-082A","EPOCH":"2026-03-05T17:37:53.738400","MEAN_MOTION":14.80359807,"ECCENTRICITY":0.0001958,"INCLINATION":97.8142,"RA_OF_ASC_NODE":73.8369,"ARG_OF_PERICENTER":61.3212,"MEAN_ANOMALY":298.8197,"EPHEMERIS_TYPE":0,"CLASSIFICATION_TYPE":"U","NORAD_CAT_ID":44819,"ELEMENT_SET_NO":999,"REV_AT_EPOCH":33878,"BSTAR":0.00010335,"MEAN_MOTION_DOT":7.38e-6,"MEAN_MOTION_DDOT":0},{"OBJECT_NAME":"CSG-1","OBJECT_ID":"2019-092A","EPOCH":"2026-03-05T18:14:41.723232","MEAN_MOTION":14.82167513,"ECCENTRICITY":0.0001309,"INCLINATION":97.8863,"RA_OF_ASC_NODE":249.8549,"ARG_OF_PERICENTER":87.2106,"MEAN_ANOMALY":272.9257,"EPHEMERIS_TYPE":0,"CLASSIFICATION_TYPE":"U","NORAD_CAT_ID":44873,"ELEMENT_SET_NO":999,"REV_AT_EPOCH":33615,"BSTAR":0.00012138,"MEAN_MOTION_DOT":9.14e-6,"MEAN_MOTION_DDOT":0},{"OBJECT_NAME":"NEMO-HD","OBJECT_ID":"2020-061F","EPOCH":"2026-03-05T17:27:30.885984","MEAN_MOTION":15.42394247,"ECCENTRICITY":0.0002533,"INCLINATION":97.2049,"RA_OF_ASC_NODE":127.8209,"ARG_OF_PERICENTER":83.0313,"MEAN_ANOMALY":277.1223,"EPHEMERIS_TYPE":0,"CLASSIFICATION_TYPE":"U","NORAD_CAT_ID":46277,"ELEMENT_SET_NO":999,"REV_AT_EPOCH":30602,"BSTAR":0.00029897,"MEAN_MOTION_DOT":0.00012834,"MEAN_MOTION_DDOT":0},{"OBJECT_NAME":"SENTINEL-6A","OBJECT_ID":"2020-086A","EPOCH":"2026-03-05T05:52:06.672288","MEAN_MOTION":12.80929583,"ECCENTRICITY":0.0007815,"INCLINATION":66.0446,"RA_OF_ASC_NODE":350.9437,"ARG_OF_PERICENTER":270.8309,"MEAN_ANOMALY":89.1811,"EPHEMERIS_TYPE":0,"CLASSIFICATION_TYPE":"U","NORAD_CAT_ID":46984,"ELEMENT_SET_NO":999,"REV_AT_EPOCH":24701,"BSTAR":4.8802e-5,"MEAN_MOTION_DOT":-5.0e-7,"MEAN_MOTION_DDOT":0},{"OBJECT_NAME":"GAOFEN-12 02","OBJECT_ID":"2021-026A","EPOCH":"2026-03-05T19:15:19.601280","MEAN_MOTION":14.80198008,"ECCENTRICITY":0.0004272,"INCLINATION":97.9914,"RA_OF_ASC_NODE":63.4218,"ARG_OF_PERICENTER":193.0131,"MEAN_ANOMALY":167.0971,"EPHEMERIS_TYPE":0,"CLASSIFICATION_TYPE":"U","NORAD_CAT_ID":48079,"ELEMENT_SET_NO":999,"REV_AT_EPOCH":26646,"BSTAR":0.00010525,"MEAN_MOTION_DOT":7.47e-6,"MEAN_MOTION_DDOT":0},{"OBJECT_NAME":"PLEIADES NEO 3","OBJECT_ID":"2021-034A","EPOCH":"2026-03-05T17:25:15.675168","MEAN_MOTION":14.81673866,"ECCENTRICITY":0.0001332,"INCLINATION":97.8935,"RA_OF_ASC_NODE":140.9775,"ARG_OF_PERICENTER":89.7214,"MEAN_ANOMALY":270.4151,"EPHEMERIS_TYPE":0,"CLASSIFICATION_TYPE":"U","NORAD_CAT_ID":48268,"ELEMENT_SET_NO":999,"REV_AT_EPOCH":26233,"BSTAR":3.1064e-6,"MEAN_MOTION_DOT":-2.8e-7,"MEAN_MOTION_DDOT":0},{"OBJECT_NAME":"PLEIADES NEO 4","OBJECT_ID":"2021-073E","EPOCH":"2026-03-05T18:13:52.223808","MEAN_MOTION":14.81672417,"ECCENTRICITY":0.0001318,"INCLINATION":97.8934,"RA_OF_ASC_NODE":141.0065,"ARG_OF_PERICENTER":90.7905,"MEAN_ANOMALY":269.3459,"EPHEMERIS_TYPE":0,"CLASSIFICATION_TYPE":"U","NORAD_CAT_ID":49070,"ELEMENT_SET_NO":999,"REV_AT_EPOCH":24605,"BSTAR":-1.1936e-6,"MEAN_MOTION_DOT":-6.1e-7,"MEAN_MOTION_DDOT":0}]
